start=new Date('2021-10-02T00:00:00.000Z').valueOf();
sats=[{"OBJECT_ID":"2020-006AD","SEMIMAJOR_AXIS":"6925.359","ARG_OF_PERICENTER":"100.7166","REV_AT_EPOCH":"9255","COUNTRY_CODE":"US","MEAN_MOTION_DDOT":"0.0000000000000","PERIOD":"95.592","PERIAPSIS":"546.440","RA_OF_ASC_NODE":"339.4991","MEAN_ANOMALY":"259.3950","OBJECT_TYPE":"PAYLOAD","MEAN_ELEMENT_THEORY":"SGP4","FILE":"3139397","MEAN_MOTION":"15.06396431","REF_FRAME":"TEME","CLASSIFICATION_TYPE":"U","GP_ID":"185960255","NORAD_CAT_ID":"45071","RCS_SIZE":"LARGE","LAUNCH_DATE":"2020-01-29","MEAN_MOTION_DOT":"-0.00001134","CENTER_NAME":"EARTH","SITE":"AFETR","ECCENTRICITY":"0.00011330","TLE_LINE2":"2 45071  53.0558 339.4991 0001133 100.7166 259.3950 15.06396431 92554","APOAPSIS":"548.009","EPOCH":"2021-10-01T14:21:28.507968","ELEMENT_SET_NO":"999","OBJECT_NAME":"STARLINK-1167","DECAY_DATE":null,"TIME_SYSTEM":"UTC","BSTAR":"-0.00005726600000","INCLINATION":"53.0558","TLE_LINE1":"1 45071U 20006AD  21274.59824662 -.00001134  00000-0 -57266-4 0  9994","EPHEMERIS_TYPE":"0"},{"OBJECT_TYPE":"PAYLOAD","MEAN_ANOMALY":"269.6581","FILE":"3139397","MEAN_ELEMENT_THEORY":"SGP4","REV_AT_EPOCH":"9255","SEMIMAJOR_AXIS":"6925.340","OBJECT_ID":"2020-006AE","ARG_OF_PERICENTER":"90.4523","MEAN_MOTION_DDOT":"0.0000000000000","COUNTRY_CODE":"US","PERIOD":"95.592","PERIAPSIS":"546.509","RA_OF_ASC_NODE":"339.4884","APOAPSIS":"547.901","OBJECT_NAME":"STARLINK-1168","ELEMENT_SET_NO":"999","EPOCH":"2021-10-01T14:26:46.753728","BSTAR":"0.00011174000000","DECAY_DATE":null,"TIME_SYSTEM":"UTC","EPHEMERIS_TYPE":"0","INCLINATION":"53.0530","TLE_LINE1":"1 45072U 20006AE  21274.60193002  .00001384  00000-0  11174-3 0  9996","MEAN_MOTION":"15.06402862","REF_FRAME":"TEME","RCS_SIZE":"LARGE","CLASSIFICATION_TYPE":"U","NORAD_CAT_ID":"45072","GP_ID":"185960008","SITE":"AFETR","LAUNCH_DATE":"2020-01-29","MEAN_MOTION_DOT":"0.00001384","CENTER_NAME":"EARTH","TLE_LINE2":"2 45072  53.0530 339.4884 0001005  90.4523 269.6581 15.06402862 92556","ECCENTRICITY":"0.00010050"},{"MEAN_MOTION":"15.06385965","REF_FRAME":"TEME","GP_ID":"185959262","NORAD_CAT_ID":"45073","CLASSIFICATION_TYPE":"U","RCS_SIZE":"LARGE","CENTER_NAME":"EARTH","MEAN_MOTION_DOT":"0.00000039","LAUNCH_DATE":"2020-01-29","SITE":"AFETR","ECCENTRICITY":"0.00011530","TLE_LINE2":"2 45073  53.0552 338.1674 0001153 100.9346 259.1772 15.06385965 92592","APOAPSIS":"548.055","EPOCH":"2021-10-01T21:26:06.022464","ELEMENT_SET_NO":"999","OBJECT_NAME":"STARLINK-1170","TIME_SYSTEM":"UTC","DECAY_DATE":null,"BSTAR":"0.00002149100000","TLE_LINE1":"1 45073U 20006AF  21274.89312526  .00000039  00000-0  21491-4 0  9992","INCLINATION":"53.0552","EPHEMERIS_TYPE":"0","ARG_OF_PERICENTER":"100.9346","SEMIMAJOR_AXIS":"6925.392","OBJECT_ID":"2020-006AF","REV_AT_EPOCH":"9259","PERIOD":"95.593","COUNTRY_CODE":"US","MEAN_MOTION_DDOT":"0.0000000000000","PERIAPSIS":"546.458","RA_OF_ASC_NODE":"338.1674","OBJECT_TYPE":"PAYLOAD","MEAN_ANOMALY":"259.1772","MEAN_ELEMENT_THEORY":"SGP4","FILE":"3139397"},{"SITE":"AFETR","CENTER_NAME":"EARTH","MEAN_MOTION_DOT":"0.00004369","LAUNCH_DATE":"2020-01-29","TLE_LINE2":"2 45074  53.0563 338.2462 0001034  86.7599 273.3508 15.06397010 92599","ECCENTRICITY":"0.00010340","MEAN_MOTION":"15.06397010","REF_FRAME":"TEME","RCS_SIZE":"LARGE","GP_ID":"185959511","NORAD_CAT_ID":"45074","CLASSIFICATION_TYPE":"U","BSTAR":"0.00031205000000","TIME_SYSTEM":"UTC","DECAY_DATE":null,"EPHEMERIS_TYPE":"0","TLE_LINE1":"1 45074U 20006AG  21274.87839196  .00004369  00000-0  31205-3 0  9991","INCLINATION":"53.0563","APOAPSIS":"547.939","OBJECT_NAME":"STARLINK-1172","EPOCH":"2021-10-01T21:04:53.065344","ELEMENT_SET_NO":"999","PERIAPSIS":"546.507","RA_OF_ASC_NODE":"338.2462","REV_AT_EPOCH":"9259","ARG_OF_PERICENTER":"86.7599","SEMIMAJOR_AXIS":"6925.358","OBJECT_ID":"2020-006AG","PERIOD":"95.592","COUNTRY_CODE":"US","MEAN_MOTION_DDOT":"0.0000000000000","MEAN_ANOMALY":"273.3508","OBJECT_TYPE":"PAYLOAD","FILE":"3139397","MEAN_ELEMENT_THEORY":"SGP4"},{"CENTER_NAME":"EARTH","MEAN_MOTION_DOT":"0.00002183","LAUNCH_DATE":"2020-01-29","SITE":"AFETR","ECCENTRICITY":"0.00009220","TLE_LINE2":"2 45075  53.0565 339.5851 0000922  97.0501 263.0593 15.06399459 92556","MEAN_MOTION":"15.06399459","REF_FRAME":"TEME","NORAD_CAT_ID":"45075","GP_ID":"185959755","CLASSIFICATION_TYPE":"U","RCS_SIZE":"LARGE","TIME_SYSTEM":"UTC","DECAY_DATE":null,"BSTAR":"0.00016541000000","TLE_LINE1":"1 45075U 20006AH  21274.57981801  .00002183  00000-0  16541-3 0  9998","INCLINATION":"53.0565","EPHEMERIS_TYPE":"0","APOAPSIS":"547.854","ELEMENT_SET_NO":"999","EPOCH":"2021-10-01T13:54:56.276064","OBJECT_NAME":"STARLINK-1174","PERIAPSIS":"546.577","RA_OF_ASC_NODE":"339.5851","ARG_OF_PERICENTER":"97.0501","SEMIMAJOR_AXIS":"6925.350","OBJECT_ID":"2020-006AH","REV_AT_EPOCH":"9255","PERIOD":"95.592","COUNTRY_CODE":"US","MEAN_MOTION_DDOT":"0.0000000000000","MEAN_ANOMALY":"263.0593","OBJECT_TYPE":"PAYLOAD","MEAN_ELEMENT_THEORY":"SGP4","FILE":"3139397"},{"NORAD_CAT_ID":"45076","GP_ID":"185960509","CLASSIFICATION_TYPE":"U","RCS_SIZE":"LARGE","MEAN_MOTION":"15.06401612","REF_FRAME":"TEME","ECCENTRICITY":"0.00010910","TLE_LINE2":"2 45076  53.0546 339.2474 0001091  97.7457 262.3656 15.06401612 92567","MEAN_MOTION_DOT":"0.00000969","CENTER_NAME":"EARTH","LAUNCH_DATE":"2020-01-29","SITE":"AFETR","EPOCH":"2021-10-01T15:41:04.838208","ELEMENT_SET_NO":"999","OBJECT_NAME":"STARLINK-1180","APOAPSIS":"547.964","TLE_LINE1":"1 45076U 20006AJ  21274.65352822  .00000969  00000-0  83925-4 0  9994","INCLINATION":"53.0546","EPHEMERIS_TYPE":"0","TIME_SYSTEM":"UTC","DECAY_DATE":null,"BSTAR":"0.00008392500000","PERIOD":"95.592","COUNTRY_CODE":"US","MEAN_MOTION_DDOT":"0.0000000000000","ARG_OF_PERICENTER":"97.7457","OBJECT_ID":"2020-006AJ","SEMIMAJOR_AXIS":"6925.344","REV_AT_EPOCH":"9256","RA_OF_ASC_NODE":"339.2474","PERIAPSIS":"546.453","MEAN_ELEMENT_THEORY":"SGP4","FILE":"3139397","OBJECT_TYPE":"PAYLOAD","MEAN_ANOMALY":"262.3656"},{"OBJECT_NAME":"STARLINK-1182","ELEMENT_SET_NO":"999","EPOCH":"2021-10-01T20:15:47.343744","APOAPSIS":"447.476","EPHEMERIS_TYPE":"0","TLE_LINE1":"1 45077U 20006AK  21274.84429796  .00001256  00000-0  41055-4 0  9999","INCLINATION":"53.0556","BSTAR":"0.00004105500000","TIME_SYSTEM":"UTC","DECAY_DATE":null,"RCS_SIZE":"LARGE","GP_ID":"185958762","NORAD_CAT_ID":"45077","CLASSIFICATION_TYPE":"U","REF_FRAME":"TEME","MEAN_MOTION":"15.39879699","ECCENTRICITY":"0.00014790","TLE_LINE2":"2 45077  53.0556 323.9945 0001479  65.9203 294.1955 15.39879699 92798","SITE":"AFETR","CENTER_NAME":"EARTH","MEAN_MOTION_DOT":"0.00001256","LAUNCH_DATE":"2020-01-29","FILE":"3139397","MEAN_ELEMENT_THEORY":"SGP4","OBJECT_TYPE":"PAYLOAD","MEAN_ANOMALY":"294.1955","PERIOD":"93.514","COUNTRY_CODE":"US","MEAN_MOTION_DDOT":"0.0000000000000","REV_AT_EPOCH":"9279","ARG_OF_PERICENTER":"65.9203","SEMIMAJOR_AXIS":"6824.602","OBJECT_ID":"2020-006AK","RA_OF_ASC_NODE":"323.9945","PERIAPSIS":"445.457"},{"CLASSIFICATION_TYPE":"U","GP_ID":"185959012","NORAD_CAT_ID":"45078","RCS_SIZE":"LARGE","MEAN_MOTION":"15.06398574","REF_FRAME":"TEME","ECCENTRICITY":"0.00012760","TLE_LINE2":"2 45078  53.0574 338.2618 0001276  79.7567 280.3566 15.06398574 92580","LAUNCH_DATE":"2020-01-29","MEAN_MOTION_DOT":"-0.00000909","CENTER_NAME":"EARTH","SITE":"AFETR","EPOCH":"2021-10-01T20:54:14.821632","ELEMENT_SET_NO":"999","OBJECT_NAME":"STARLINK-1177","APOAPSIS":"548.102","TLE_LINE1":"1 45078U 20006AL  21274.87100488 -.00000909  00000-0 -42174-4 0  9996","INCLINATION":"53.0574","EPHEMERIS_TYPE":"0","DECAY_DATE":null,"TIME_SYSTEM":"UTC","BSTAR":"-0.00004217400000","COUNTRY_CODE":"US","MEAN_MOTION_DDOT":"0.0000000000000","PERIOD":"95.592","OBJECT_ID":"2020-006AL","SEMIMAJOR_AXIS":"6925.353","ARG_OF_PERICENTER":"79.7567","REV_AT_EPOCH":"9258","RA_OF_ASC_NODE":"338.2618","PERIAPSIS":"546.334","MEAN_ELEMENT_THEORY":"SGP4","FILE":"3139397","OBJECT_TYPE":"PAYLOAD","MEAN_ANOMALY":"280.3566"},{"FILE":"3139397","MEAN_ELEMENT_THEORY":"SGP4","OBJECT_TYPE":"PAYLOAD","MEAN_ANOMALY":"255.1928","PERIOD":"95.592","MEAN_MOTION_DDOT":"0.0000000000000","COUNTRY_CODE":"US","REV_AT_EPOCH":"9254","ARG_OF_PERICENTER":"104.9193","OBJECT_ID":"2020-006AM","SEMIMAJOR_AXIS":"6925.338","RA_OF_ASC_NODE":"339.5717","PERIAPSIS":"546.375","OBJECT_NAME":"STARLINK-1149","EPOCH":"2021-10-01T14:00:14.257440","ELEMENT_SET_NO":"999","APOAPSIS":"548.030","EPHEMERIS_TYPE":"0","INCLINATION":"53.0546","TLE_LINE1":"1 45079U 20006AM  21274.58349835  .00000689  00000-0  65102-4 0  9995","BSTAR":"0.00006510200000","TIME_SYSTEM":"UTC","DECAY_DATE":null,"RCS_SIZE":"LARGE","NORAD_CAT_ID":"45079","GP_ID":"185960256","CLASSIFICATION_TYPE":"U","REF_FRAME":"TEME","MEAN_MOTION":"15.06403581","ECCENTRICITY":"0.00011950","TLE_LINE2":"2 45079  53.0546 339.5717 0001195 104.9193 255.1928 15.06403581 92543","SITE":"AFETR","MEAN_MOTION_DOT":"0.00000689","CENTER_NAME":"EARTH","LAUNCH_DATE":"2020-01-29"},{"RCS_SIZE":"LARGE","CLASSIFICATION_TYPE":"U","NORAD_CAT_ID":"45080","GP_ID":"185960009","MEAN_MOTION":"15.06406271","REF_FRAME":"TEME","ECCENTRICITY":"0.00010210","TLE_LINE2":"2 45080  53.0545 339.2316 0001021  93.2022 266.9083 15.06406271 92568","SITE":"AFETR","LAUNCH_DATE":"2020-01-29","CENTER_NAME":"EARTH","MEAN_MOTION_DOT":"0.00002106","OBJECT_NAME":"STARLINK-1153","EPOCH":"2021-10-01T15:46:23.707776","ELEMENT_SET_NO":"999","APOAPSIS":"547.901","EPHEMERIS_TYPE":"0","TLE_LINE1":"1 45080U 20006AN  21274.65721884  .00002106  00000-0  16019-3 0  9991","INCLINATION":"53.0545","BSTAR":"0.00016019000000","DECAY_DATE":null,"TIME_SYSTEM":"UTC","COUNTRY_CODE":"US","MEAN_MOTION_DDOT":"0.0000000000000","PERIOD":"95.592","REV_AT_EPOCH":"9256","SEMIMAJOR_AXIS":"6925.329","OBJECT_ID":"2020-006AN","ARG_OF_PERICENTER":"93.2022","RA_OF_ASC_NODE":"339.2316","PERIAPSIS":"546.487","FILE":"3139397","MEAN_ELEMENT_THEORY":"SGP4","MEAN_ANOMALY":"266.9083","OBJECT_TYPE":"PAYLOAD"}];
